start=new Date('2021-12-04T00:00:00.000Z').valueOf();
sats=[{"EPOCH":"2021-12-03T22:00:00.999936","RA_OF_ASC_NODE":"18.4292","ARG_OF_PERICENTER":"34.1854","REV_AT_EPOCH":"369","DECAY_DATE":null,"TLE_LINE1":"1 48024U 21024AZ  21337.91667824  .00786213  00000-0  25158-2 0  9996","ELEMENT_SET_NO":"999","CENTER_NAME":"EARTH","OBJECT_ID":"2021-024AZ","NORAD_CAT_ID":"48024","MEAN_ANOMALY":"163.5882","SITE":"AFETR","ECCENTRICITY":"0.00016210","MEAN_MOTION":"15.88603823","CLASSIFICATION_TYPE":"U","APOAPSIS":"307.282","LAUNCH_DATE":"2021-03-24","MEAN_MOTION_DOT":"0.00786213","PERIAPSIS":"305.115","RCS_SIZE":"LARGE","BSTAR":"0.00251580000000","FILE":"3231910","EPHEMERIS_TYPE":"0","OBJECT_NAME":"STARLINK-2302","COUNTRY_CODE":"US","TLE_LINE2":"2 48024  53.0546  18.4292 0001621  34.1854 163.5882 15.88603823  3699","GP_ID":"191038072","MEAN_ELEMENT_THEORY":"SGP4","PERIOD":"90.646","TIME_SYSTEM":"UTC","MEAN_MOTION_DDOT":"0.0000000000000","REF_FRAME":"TEME","SEMIMAJOR_AXIS":"6684.333","INCLINATION":"53.0546","OBJECT_TYPE":"PAYLOAD"},{"OBJECT_ID":"2021-024BA","MEAN_ANOMALY":"58.7595","NORAD_CAT_ID":"48025","SITE":"AFETR","ELEMENT_SET_NO":"999","CENTER_NAME":"EARTH","REV_AT_EPOCH":"369","DECAY_DATE":null,"TLE_LINE1":"1 48025U 21024BA  21337.91667824  .00116688  00000-0  52171-3 0  9996","RA_OF_ASC_NODE":"18.4541","EPOCH":"2021-12-03T22:00:00.999936","ARG_OF_PERICENTER":"85.8711","BSTAR":"0.00052171000000","FILE":"3231910","CLASSIFICATION_TYPE":"U","APOAPSIS":"323.121","MEAN_MOTION_DOT":"0.00116688","LAUNCH_DATE":"2021-03-24","PERIAPSIS":"318.612","RCS_SIZE":"LARGE","MEAN_MOTION":"15.83389044","ECCENTRICITY":"0.00033650","PERIOD":"90.944","TIME_SYSTEM":"UTC","MEAN_ELEMENT_THEORY":"SGP4","TLE_LINE2":"2 48025  53.0428  18.4541 0003365  85.8711  58.7595 15.83389044  3695","GP_ID":"191039323","EPHEMERIS_TYPE":"0","OBJECT_NAME":"STARLINK-2318","COUNTRY_CODE":"US","OBJECT_TYPE":"PAYLOAD","INCLINATION":"53.0428","SEMIMAJOR_AXIS":"6699.002","MEAN_MOTION_DDOT":"0.0000000000000","REF_FRAME":"TEME"},{"ELEMENT_SET_NO":"999","CENTER_NAME":"EARTH","OBJECT_ID":"2021-024BB","SITE":"AFETR","MEAN_ANOMALY":"266.4487","NORAD_CAT_ID":"48026","ARG_OF_PERICENTER":"93.6681","EPOCH":"2021-12-03T14:33:31.555872","RA_OF_ASC_NODE":"126.7005","DECAY_DATE":null,"REV_AT_EPOCH":"3981","TLE_LINE1":"1 48026U 21024BB  21337.60661523 -.00000076  00000-0  13819-4 0  9994","APOAPSIS":"548.304","CLASSIFICATION_TYPE":"U","RCS_SIZE":"LARGE","LAUNCH_DATE":"2021-03-24","PERIAPSIS":"546.142","MEAN_MOTION_DOT":"-0.00000076","BSTAR":"0.00001381900000","FILE":"3231910","ECCENTRICITY":"0.00015610","MEAN_MOTION":"15.06396892","MEAN_ELEMENT_THEORY":"SGP4","TIME_SYSTEM":"UTC","PERIOD":"95.592","OBJECT_NAME":"STARLINK-2278","EPHEMERIS_TYPE":"0","COUNTRY_CODE":"US","TLE_LINE2":"2 48026  53.0412 126.7005 0001561  93.6681 266.4487 15.06396892 39811","GP_ID":"191039074","SEMIMAJOR_AXIS":"6925.358","INCLINATION":"53.0412","OBJECT_TYPE":"PAYLOAD","MEAN_MOTION_DDOT":"0.0000000000000","REF_FRAME":"TEME"},{"TLE_LINE1":"1 48027U 21024BC  21337.69922308 -.00000147  00000-0  90576-5 0  9990","DECAY_DATE":null,"REV_AT_EPOCH":"4017","ARG_OF_PERICENTER":"90.3700","EPOCH":"2021-12-03T16:46:52.874112","RA_OF_ASC_NODE":"101.2165","SITE":"AFETR","MEAN_ANOMALY":"269.7467","NORAD_CAT_ID":"48027","OBJECT_ID":"2021-024BC","CENTER_NAME":"EARTH","ELEMENT_SET_NO":"999","MEAN_MOTION":"15.06392720","ECCENTRICITY":"0.00015540","BSTAR":"0.00000905760000","FILE":"3231910","RCS_SIZE":"LARGE","LAUNCH_DATE":"2021-03-24","PERIAPSIS":"546.160","MEAN_MOTION_DOT":"-0.00000147","APOAPSIS":"548.312","CLASSIFICATION_TYPE":"U","GP_ID":"191037822","TLE_LINE2":"2 48027  53.0556 101.2165 0001554  90.3700 269.7467 15.06392720 40175","COUNTRY_CODE":"US","OBJECT_NAME":"STARLINK-2300","EPHEMERIS_TYPE":"0","PERIOD":"95.593","TIME_SYSTEM":"UTC","MEAN_ELEMENT_THEORY":"SGP4","REF_FRAME":"TEME","MEAN_MOTION_DDOT":"0.0000000000000","INCLINATION":"53.0556","OBJECT_TYPE":"PAYLOAD","SEMIMAJOR_AXIS":"6925.371"},{"MEAN_ELEMENT_THEORY":"SGP4","PERIOD":"95.592","TIME_SYSTEM":"UTC","OBJECT_NAME":"STARLINK-2264","EPHEMERIS_TYPE":"0","COUNTRY_CODE":"US","TLE_LINE2":"2 48028  53.0572  55.2353 0001398  99.7566 292.8788 15.06402202  3595","GP_ID":"191038572","SEMIMAJOR_AXIS":"6925.342","OBJECT_TYPE":"PAYLOAD","INCLINATION":"53.0572","MEAN_MOTION_DDOT":"0.0000000000000","REF_FRAME":"TEME","ELEMENT_SET_NO":"999","CENTER_NAME":"EARTH","OBJECT_ID":"2021-024BD","SITE":"AFETR","NORAD_CAT_ID":"48028","MEAN_ANOMALY":"292.8788","ARG_OF_PERICENTER":"99.7566","RA_OF_ASC_NODE":"55.2353","EPOCH":"2021-12-03T22:00:00.999936","DECAY_DATE":null,"REV_AT_EPOCH":"359","TLE_LINE1":"1 48028U 21024BD  21337.91667824 -.00026864  00000-0 -17913-2 0  9991","CLASSIFICATION_TYPE":"U","APOAPSIS":"548.175","RCS_SIZE":"LARGE","MEAN_MOTION_DOT":"-0.00026864","LAUNCH_DATE":"2021-03-24","PERIAPSIS":"546.239","FILE":"3231910","BSTAR":"-0.00179130000000","ECCENTRICITY":"0.00013980","MEAN_MOTION":"15.06402202"},{"CENTER_NAME":"EARTH","ELEMENT_SET_NO":"999","SITE":"AFETR","MEAN_ANOMALY":"267.8255","NORAD_CAT_ID":"48029","OBJECT_ID":"2021-024BE","ARG_OF_PERICENTER":"92.2931","RA_OF_ASC_NODE":"120.4630","EPOCH":"2021-12-03T20:53:41.574048","TLE_LINE1":"1 48029U 21024BE  21337.87062007 -.00000682  00000-0 -26857-4 0  9998","DECAY_DATE":null,"REV_AT_EPOCH":"3998","RCS_SIZE":"LARGE","LAUNCH_DATE":"2021-03-24","MEAN_MOTION_DOT":"-0.00000682","PERIAPSIS":"546.029","CLASSIFICATION_TYPE":"U","APOAPSIS":"548.406","BSTAR":"-0.00002685700000","FILE":"3231910","ECCENTRICITY":"0.00017160","MEAN_MOTION":"15.06398749","MEAN_ELEMENT_THEORY":"SGP4","TIME_SYSTEM":"UTC","PERIOD":"95.592","COUNTRY_CODE":"US","OBJECT_NAME":"STARLINK-2299","EPHEMERIS_TYPE":"0","GP_ID":"191038824","TLE_LINE2":"2 48029  53.0561 120.4630 0001716  92.2931 267.8255 15.06398749 39988","SEMIMAJOR_AXIS":"6925.352","INCLINATION":"53.0561","OBJECT_TYPE":"PAYLOAD","REF_FRAME":"TEME","MEAN_MOTION_DDOT":"0.0000000000000"},{"OBJECT_ID":"2021-024BF","NORAD_CAT_ID":"48030","MEAN_ANOMALY":"271.6901","SITE":"AFETR","ELEMENT_SET_NO":"999","CENTER_NAME":"EARTH","REV_AT_EPOCH":"3984","DECAY_DATE":null,"TLE_LINE1":"1 48030U 21024BF  21337.83146269 -.00000195  00000-0  58165-5 0  9995","EPOCH":"2021-12-03T19:57:18.376416","RA_OF_ASC_NODE":"125.6124","ARG_OF_PERICENTER":"88.4294","BSTAR":"0.00000581650000","FILE":"3231910","CLASSIFICATION_TYPE":"U","APOAPSIS":"548.469","MEAN_MOTION_DOT":"-0.00000195","LAUNCH_DATE":"2021-03-24","PERIAPSIS":"545.979","RCS_SIZE":"LARGE","MEAN_MOTION":"15.06396508","ECCENTRICITY":"0.00017980","PERIOD":"95.592","TIME_SYSTEM":"UTC","MEAN_ELEMENT_THEORY":"SGP4","TLE_LINE2":"2 48030  53.0544 125.6124 0001798  88.4294 271.6901 15.06396508 39842","GP_ID":"191039574","EPHEMERIS_TYPE":"0","OBJECT_NAME":"STARLINK-2268","COUNTRY_CODE":"US","INCLINATION":"53.0544","OBJECT_TYPE":"PAYLOAD","SEMIMAJOR_AXIS":"6925.359","MEAN_MOTION_DDOT":"0.0000000000000","REF_FRAME":"TEME"},{"DECAY_DATE":null,"REV_AT_EPOCH":"369","TLE_LINE1":"1 48031U 21024BG  21337.91667824 -.00628513  00000-0 -65880-2 0  9990","ARG_OF_PERICENTER":"277.6958","RA_OF_ASC_NODE":"19.5921","EPOCH":"2021-12-03T22:00:00.999936","OBJECT_ID":"2021-024BG","SITE":"AFETR","MEAN_ANOMALY":"27.7036","NORAD_CAT_ID":"48031","ELEMENT_SET_NO":"999","CENTER_NAME":"EARTH","MEAN_MOTION":"15.65680697","ECCENTRICITY":"0.00023450","BSTAR":"-0.00658800000000","FILE":"3231910","CLASSIFICATION_TYPE":"U","APOAPSIS":"372.867","RCS_SIZE":"LARGE","LAUNCH_DATE":"2021-03-24","PERIAPSIS":"369.701","MEAN_MOTION_DOT":"-0.00628513","TLE_LINE2":"2 48031  53.0546  19.5921 0002345 277.6958  27.7036 15.65680697  3692","GP_ID":"191038322","OBJECT_NAME":"STARLINK-2267","EPHEMERIS_TYPE":"0","COUNTRY_CODE":"US","PERIOD":"91.973","TIME_SYSTEM":"UTC","MEAN_ELEMENT_THEORY":"SGP4","MEAN_MOTION_DDOT":"0.0000000000000","REF_FRAME":"TEME","OBJECT_TYPE":"PAYLOAD","INCLINATION":"53.0546","SEMIMAJOR_AXIS":"6749.419"},{"REF_FRAME":"TEME","MEAN_MOTION_DDOT":"0.0000000000000","SEMIMAJOR_AXIS":"6713.175","INCLINATION":"53.0545","OBJECT_TYPE":"PAYLOAD","COUNTRY_CODE":"US","OBJECT_NAME":"STARLINK-2297","EPHEMERIS_TYPE":"0","GP_ID":"191038073","TLE_LINE2":"2 48032  53.0545  19.2767 0007629 282.6255 216.9396 15.78377398  3699","MEAN_ELEMENT_THEORY":"SGP4","TIME_SYSTEM":"UTC","PERIOD":"91.233","ECCENTRICITY":"0.00076290","MEAN_MOTION":"15.78377398","RCS_SIZE":"LARGE","PERIAPSIS":"329.918","LAUNCH_DATE":"2021-03-24","MEAN_MOTION_DOT":"0.00280439","APOAPSIS":"340.161","CLASSIFICATION_TYPE":"U","BSTAR":"0.00154190000000","FILE":"3231910","ARG_OF_PERICENTER":"282.6255","EPOCH":"2021-12-03T22:00:00.999936","RA_OF_ASC_NODE":"19.2767","TLE_LINE1":"1 48032U 21024BH  21337.91667824  .00280439  00000-0  15419-2 0  9993","DECAY_DATE":null,"REV_AT_EPOCH":"369","CENTER_NAME":"EARTH","ELEMENT_SET_NO":"999","SITE":"AFETR","MEAN_ANOMALY":"216.9396","NORAD_CAT_ID":"48032","OBJECT_ID":"2021-024BH"},{"OBJECT_TYPE":"PAYLOAD","INCLINATION":"53.0552","SEMIMAJOR_AXIS":"6925.361","REF_FRAME":"TEME","MEAN_MOTION_DDOT":"0.0000000000000","PERIOD":"95.592","TIME_SYSTEM":"UTC","MEAN_ELEMENT_THEORY":"SGP4","GP_ID":"191011369","TLE_LINE2":"2 48033  53.0552 121.8893 0001184  74.4181 285.6938 15.06396086 39930","COUNTRY_CODE":"US","EPHEMERIS_TYPE":"0","OBJECT_NAME":"STARLINK-2286","BSTAR":"-0.00000884960000","FILE":"3231740","MEAN_MOTION_DOT":"-0.00000413","LAUNCH_DATE":"2021-03-24","PERIAPSIS":"546.406","RCS_SIZE":"LARGE","CLASSIFICATION_TYPE":"U","APOAPSIS":"548.046","MEAN_MOTION":"15.06396086","ECCENTRICITY":"0.00011840","NORAD_CAT_ID":"48033","MEAN_ANOMALY":"285.6938","SITE":"AFETR","OBJECT_ID":"2021-024BJ","CENTER_NAME":"EARTH","ELEMENT_SET_NO":"999","TLE_LINE1":"1 48033U 21024BJ  21337.52783086 -.00000413  00000-0 -88496-5 0  9992","REV_AT_EPOCH":"3993","DECAY_DATE":null,"EPOCH":"2021-12-03T12:40:04.586304","RA_OF_ASC_NODE":"121.8893","ARG_OF_PERICENTER":"74.4181"}];
